OBJECT_NAME,OBJECT_ID,EPOCH,MEAN_MOTION,ECCENTRICITY,INCLINATION,RA_OF_ASC_NODE,ARG_OF_PERICENTER,MEAN_ANOMALY,EPHEMERIS_TYPE,CLASSIFICATION_TYPE,NORAD_CAT_ID,ELEMENT_SET_NO,REV_AT_EPOCH,BSTAR,MEAN_MOTION_DOT,MEAN_MOTION_DDOT
STARLINK-2061,2021-036AN,2026-07-17T01:13:16.561632,15.31701118,.0001316,53.1598,206.5092,88.8190,271.2962,0,U,48312,999,28804,.2568E-4,.432E-5,0
STARLINK-2549,2021-036AQ,2026-07-17T00:40:11.767008,15.31695282,.0001143,53.1585,209.0906,86.8852,273.2280,0,U,48314,999,28799,.22879E-4,.345E-5,0
STARLINK-2506,2021-036AR,2026-07-17T01:03:20.481120,15.31693393,.0001114,53.1587,217.0607,78.1318,281.9808,0,U,48315,999,28787,.55177E-4,.1347E-4,0
STARLINK-2507,2021-036AS,2026-07-16T09:17:00.811680,15.31702265,.000129,53.1589,220.1093,71.6003,288.5139,0,U,48316,999,28777,.1863E-4,.213E-5,0
STARLINK-2513,2021-036AT,2026-07-16T08:33:12.915936,15.31700573,.0001135,53.1577,209.5066,90.3700,269.7432,0,U,48317,999,28793,.70745E-5,-.146E-5,0
STARLINK-2509,2021-036AU,2026-07-16T10:52:01.449120,15.31700380,.0001203,53.1586,222.7430,93.1389,266.9750,0,U,48318,999,28775,.12766E-4,.31E-6,0
STARLINK-2512,2021-036AV,2026-07-16T10:38:27.821184,15.31703203,.0001218,53.1590,222.0607,84.6327,275.4813,0,U,48319,999,28776,.21978E-4,.317E-5,0
STARLINK-2029,2021-036AW,2026-07-17T01:24:55.255968,15.31698250,.0001137,53.1586,219.5066,68.5191,291.5932,0,U,48320,999,28785,.25129E-4,.415E-5,0
STARLINK-2457,2021-036AX,2026-07-17T01:57:55.080000,15.31707222,.0001276,53.1587,219.0211,92.3572,267.7575,0,U,48321,999,28786,-.98903E-4,-.3434E-4,0
STARLINK-2515,2021-036AZ,2026-07-17T01:44:29.408640,15.31701813,.0001174,53.1589,219.0376,82.5514,277.5621,0,U,48323,999,28786,.33053E-4,.661E-5,0
STARLINK-2495,2021-036BB,2026-07-16T08:37:40.087200,15.31706080,.0001269,53.1570,222.4877,85.0365,275.0781,0,U,48325,999,28775,.15218E-3,.4361E-4,0
STARLINK-2498,2021-036BC,2026-07-16T08:24:42.805152,15.31713906,.0001245,53.1569,222.4604,87.7353,272.3791,0,U,48326,999,28775,.3318E-3,.9949E-4,0
STARLINK-2502,2021-036BD,2026-07-17T01:31:33.833856,15.31701173,.0001169,53.1582,219.1433,76.0213,284.0918,0,U,48327,999,28786,.25005E-4,.411E-5,0
STARLINK-2504,2021-036BE,2026-07-16T11:05:16.915776,15.31702594,.0001156,53.1588,221.8238,84.2551,275.8582,0,U,48328,999,28776,-.49509E-4,-.1901E-4,0
STARLINK-2510,2021-036BF,2026-07-17T01:04:41.919168,15.31693526,.0001155,53.1591,219.1047,86.9680,273.1453,0,U,48329,999,28786,.43962E-4,.999E-5,0
STARLINK-2501,2021-036BG,2026-07-17T00:31:14.322720,15.31700419,.0001055,53.1590,219.7081,97.3070,262.8052,0,U,48330,999,28785,.40158E-4,.881E-5,0
STARLINK-2514,2021-036BH,2026-07-17T01:54:11.303136,15.35666799,.0005726,53.1553,218.6841,20.4299,339.6932,0,U,48331,999,28787,.53153E-3,.1837E-3,0
STARLINK-2518,2021-036BK,2026-07-17T00:51:17.373600,15.31696716,.0001078,53.1589,219.2014,71.4114,288.7004,0,U,48333,999,28786,.34759E-4,.714E-5,0
STARLINK-2470,2021-036BL,2026-07-17T02:18:32.315904,15.31697644,.000117,53.1583,218.9077,86.6913,273.4222,0,U,48334,999,28787,.18709E-4,.215E-5,0
STARLINK-2613,2021-038A,2026-07-16T11:36:06.358752,15.31706392,.0001269,53.1604,118.8704,87.6068,272.5079,0,U,48353,999,28681,.76164E-4,.1999E-4,0
STARLINK-2674,2021-038B,2026-07-16T03:53:02.150880,15.31705716,.00012347,53.1592,120.4519,93.9900,266.1242,0,U,48354,999,28676,.77142097E-4,.203E-4,0
STARLINK-2635,2021-038C,2026-07-17T04:36:14.056704,15.31718412,.0001224,53.1595,115.5476,96.1199,263.9942,0,U,48355,999,28692,.10297E-3,.2833E-4,0
STARLINK-2637,2021-038D,2026-07-17T03:35:53.844864,15.31704764,.0001064,53.1597,116.0423,86.0671,274.0453,0,U,48356,999,28691,.11892E-3,.3327E-4,0
STARLINK-2636,2021-038E,2026-07-17T04:29:31.887168,15.31716902,.0001333,53.1612,115.6253,89.5898,270.5257,0,U,48357,999,28692,.98858E-4,.2705E-4,0
STARLINK-2624,2021-038F,2026-07-17T04:22:48.580608,15.31723666,.0001214,53.1598,115.6056,85.0892,275.0247,0,U,48358,999,28691,.10732E-3,.2969E-4,0
STARLINK-2628,2021-038G,2026-07-17T03:29:11.723712,15.31709272,.000127,53.1603,116.1260,78.1359,281.9785,0,U,48359,999,28690,.4619E-4,.1069E-4,0
STARLINK-2622,2021-038H,2026-07-17T04:16:06.513024,15.31720554,.0001186,53.1596,115.6573,89.3115,270.8022,0,U,48360,999,28691,.11606E-3,.324E-4,0
STARLINK-2591,2021-038J,2026-07-17T04:09:23.425056,15.31715060,.0001483,53.1601,115.6682,86.2489,273.8681,0,U,48361,999,28691,.85063E-4,.2276E-4,0
STARLINK-2578,2021-038K,2026-07-16T19:19:12.100224,15.31708997,.000119,53.1588,117.3741,103.3980,256.7154,0,U,48362,999,28686,.16665E-3,.4811E-4,0
STARLINK-2611,2021-038M,2026-07-17T03:11:46.439232,15.31708563,.0001345,53.1606,105.5093,90.3827,269.7328,0,U,48364,999,28706,.6406E-4,.1624E-4,0
