[ {"name": "STARLINK-2061", "line1": "1 48312U 21036AN  26198.05088613  .00000432  00000+0  25680-4 0  9990", "line2": "2 48312  53.1598 206.5092 0001316  88.8190 271.2962 15.31701118288049"}, {"name": "STARLINK-2549", "line1": "1 48314U 21036AQ  26198.02791397  .00000345  00000+0  22879-4 0  9999", "line2": "2 48314  53.1585 209.0906 0001143  86.8852 273.2280 15.31695282287992"}, {"name": "STARLINK-2506", "line1": "1 48315U 21036AR  26198.04398705  .00001347  00000+0  55177-4 0  9998", "line2": "2 48315  53.1587 217.0607 0001114  78.1318 281.9808 15.31693393287871"}, {"name": "STARLINK-2507", "line1": "1 48316U 21036AS  26197.38681495  .00000213  00000+0  18630-4 0  9990", "line2": "2 48316  53.1589 220.1093 0001290  71.6003 288.5139 15.31702265287770"}, {"name": "STARLINK-2513", "line1": "1 48317U 21036AT  26197.35639949 -.00000146  00000+0  70745-5 0  9997", "line2": "2 48317  53.1577 209.5066 0001135  90.3700 269.7432 15.31700573287934"}, {"name": "STARLINK-2509", "line1": "1 48318U 21036AU  26197.45279455  .00000031  00000+0  12766-4 0  9991", "line2": "2 48318  53.1586 222.7430 0001203  93.1389 266.9750 15.31700380287755"}, {"name": "STARLINK-2512", "line1": "1 48319U 21036AV  26197.44337756  .00000317  00000+0  21978-4 0  9992", "line2": "2 48319  53.1590 222.0607 0001218  84.6327 275.4813 15.31703203287766"}, {"name": "STARLINK-2029", "line1": "1 48320U 21036AW  26198.05897287  .00000415  00000+0  25129-4 0  9993", "line2": "2 48320  53.1586 219.5066 0001137  68.5191 291.5932 15.31698250287859"}, {"name": "STARLINK-2457", "line1": "1 48321U 21036AX  26198.08188750 -.00003434  00000+0 -98903-4 0  9991", "line2": "2 48321  53.1587 219.0211 0001276  92.3572 267.7575 15.31707222287869"}, {"name": "STARLINK-2515", "line1": "1 48323U 21036AZ  26198.07256260  .00000661  00000+0  33053-4 0  9996", "line2": "2 48323  53.1589 219.0376 0001174  82.5514 277.5621 15.31701813287860"}, {"name": "STARLINK-2495", "line1": "1 48325U 21036BB  26197.35949175  .00004361  00000+0  15218-3 0  9995", "line2": "2 48325  53.1570 222.4877 0001269  85.0365 275.0781 15.31706080287752"}, {"name": "STARLINK-2498", "line1": "1 48326U 21036BC  26197.35049543  .00009949  00000+0  33180-3 0  9991", "line2": "2 48326  53.1569 222.4604 0001245  87.7353 272.3791 15.31713906287755"}, {"name": "STARLINK-2502", "line1": "1 48327U 21036BD  26198.06358604  .00000411  00000+0  25005-4 0  9995", "line2": "2 48327  53.1582 219.1433 0001169  76.0213 284.0918 15.31701173287861"}, {"name": "STARLINK-2504", "line1": "1 48328U 21036BE  26197.46200134 -.00001901  00000+0 -49509-4 0  9995", "line2": "2 48328  53.1588 221.8238 0001156  84.2551 275.8582 15.31702594287765"}, {"name": "STARLINK-2510", "line1": "1 48329U 21036BF  26198.04492962  .00000999  00000+0  43962-4 0  9994", "line2": "2 48329  53.1591 219.1047 0001155  86.9680 273.1453 15.31693526287862"}, {"name": "STARLINK-2501", "line1": "1 48330U 21036BG  26198.02169355  .00000881  00000+0  40158-4 0  9995", "line2": "2 48330  53.1590 219.7081 0001055  97.3070 262.8052 15.31700419287854"}, {"name": "STARLINK-2514", "line1": "1 48331U 21036BH  26198.07929749  .00018370  00000+0  53153-3 0  9992", "line2": "2 48331  53.1553 218.6841 0005726  20.4299 339.6932 15.35666799287873"}, {"name": "STARLINK-2518", "line1": "1 48333U 21036BK  26198.03561775  .00000714  00000+0  34759-4 0  9996", "line2": "2 48333  53.1589 219.2014 0001078  71.4114 288.7004 15.31696716287862"}, {"name": "STARLINK-2470", "line1": "1 48334U 21036BL  26198.09620736  .00000215  00000+0  18709-4 0  9999", "line2": "2 48334  53.1583 218.9077 0001170  86.6913 273.4222 15.31697644287875"}, {"name": "STARLINK-2613", "line1": "1 48353U 21038A   26197.48340693  .00001999  00000+0  76164-4 0  9994", "line2": "2 48353  53.1604 118.8704 0001269  87.6068 272.5079 15.31706392286810"}, {"name": "STARLINK-2674", "line1": "1 48354U 21038B   26197.16183045  .00002030  00000+0  77142-4 0  9990", "line2": "2 48354  53.1592 120.4519 0001234  93.9900 266.1242 15.31705716286761"}, {"name": "STARLINK-2635", "line1": "1 48355U 21038C   26198.19182936  .00002833  00000+0  10297-3 0  9991", "line2": "2 48355  53.1595 115.5476 0001224  96.1199 263.9942 15.31718412286923"}, {"name": "STARLINK-2637", "line1": "1 48356U 21038D   26198.14992876  .00003327  00000+0  11892-3 0  9990", "line2": "2 48356  53.1597 116.0423 0001064  86.0671 274.0453 15.31704764286913"}, {"name": "STARLINK-2636", "line1": "1 48357U 21038E   26198.18717462  .00002705  00000+0  98858-4 0  9998", "line2": "2 48357  53.1612 115.6253 0001333  89.5898 270.5257 15.31716902286927"}, {"name": "STARLINK-2624", "line1": "1 48358U 21038F   26198.18250672  .00002969  00000+0  10732-3 0  9990", "line2": "2 48358  53.1598 115.6056 0001214  85.0892 275.0247 15.31723666286918"}, {"name": "STARLINK-2628", "line1": "1 48359U 21038G   26198.14527458  .00001069  00000+0  46190-4 0  9994", "line2": "2 48359  53.1603 116.1260 0001270  78.1359 281.9785 15.31709272286901"}, {"name": "STARLINK-2622", "line1": "1 48360U 21038H   26198.17785316  .00003240  00000+0  11606-3 0  9994", "line2": "2 48360  53.1596 115.6573 0001186  89.3115 270.8022 15.31720554286913"}, {"name": "STARLINK-2591", "line1": "1 48361U 21038J   26198.17318779  .00002276  00000+0  85063-4 0  9997", "line2": "2 48361  53.1601 115.6682 0001483  86.2489 273.8681 15.31715060286912"}, {"name": "STARLINK-2578", "line1": "1 48362U 21038K   26197.80500116  .00004811  00000+0  16665-3 0  9993", "line2": "2 48362  53.1588 117.3741 0001190 103.3980 256.7154 15.31708997286864"}, {"name": "STARLINK-2611", "line1": "1 48364U 21038M   26198.13317638  .00001624  00000+0  64060-4 0  9999", "line2": "2 48364  53.1606 105.5093 0001345  90.3827 269.7328 15.31708563287062"}]